[{"OBJECT_NAME":"STARLINK-11424 [DTC]","OBJECT_ID":"2024-209L","EPOCH":"2026-03-09T21:46:53.621184","MEAN_MOTION":15.69916651,"ECCENTRICITY":0.00019513,"INCLINATION":53.157,"RA_OF_ASC_NODE":10.0755,"ARG_OF_PERICENTER":137.5423,"MEAN_ANOMALY":222.5746,"EPHEMERIS_TYPE":0,"CLASSIFICATION_TYPE":"U","NORAD_CAT_ID":61949,"ELEMENT_SET_NO":999,"REV_AT_EPOCH":7671,"BSTAR":0.0023945798,"MEAN_MOTION_DOT":0.00302938,"MEAN_MOTION_DDOT":0},{"OBJECT_NAME":"THORAD AGENA D DEB","OBJECT_ID":"1970-025PF","EPOCH":"2026-03-08T02:58:32.488032","MEAN_MOTION":15.64290563,"ECCENTRICITY":0.00166136,"INCLINATION":99.9335,"RA_OF_ASC_NODE":127.481,"ARG_OF_PERICENTER":247.6747,"MEAN_ANOMALY":112.2743,"EPHEMERIS_TYPE":0,"CLASSIFICATION_TYPE":"U","NORAD_CAT_ID":17717,"ELEMENT_SET_NO":999,"REV_AT_EPOCH":15016,"BSTAR":0.0052904272,"MEAN_MOTION_DOT":0.00540965,"MEAN_MOTION_DDOT":0}]
